DMC3-FM3                
1 40717U 15032C   25333.81290899  .00000675  00000+0  84382-4 0  9998
2 40717  97.6814 204.5346 0005631  12.0520 348.0830 14.85400119560319
