{
  "type": "FeatureCollection",
  "features": [
    {
      "type": "Feature",
      "properties": {
        "OBJECT_NAME": "DMC3-FM3",
        "OBJECT_ID": "2015-032C",
        "EPOCH": "2025-11-29T19:30:35.336736",
        "MEAN_MOTION": 14.85400119,
        "ECCENTRICITY": 0.0005631,
        "INCLINATION": 97.6814,
        "RA_OF_ASC_NODE": 204.5346,
        "ARG_OF_PERICENTER": 12.052,
        "MEAN_ANOMALY": 348.083,
        "EPHEMERIS_TYPE": 0,
        "CLASSIFICATION_TYPE": "U",
        "NORAD_CAT_ID": 40717,
        "ELEMENT_SET_NO": 999,
        "REV_AT_EPOCH": 56031,
        "BSTAR": 8.4382e-05,
        "MEAN_MOTION_DOT": 6.75e-06,
        "MEAN_MOTION_DDOT": 0,
        "norad_id": 40717,
        "name": "DMC3-FM3",
        "group": "dmc",
        "longitude_deg": NaN,
        "latitude_deg": NaN,
        "alt_km": NaN,
        "orbit_class": "HEO",
        "timestamp": "2025-11-30T04:52:16.841155+00:00"
      },
      "geometry": {
        "type": "Point",
        "coordinates": [
          NaN,
          NaN
        ]
      }
    }
  ]
}